[
    {
        "Altitude(m)": 612502.1869477376,
        "Argument of Periapsis(deg)": 0.0,
        "Eccentricity": 0.0,
        "Inclination(deg)": 60.0,
        "Latitude(deg)": -28.13594835934255,
        "Longitude(deg)": 92.14825171625452,
        "Mean Anomaly(deg)": -32.72730000000001,
        "RAAN(deg)": 210.0,
        "Satellite Name": "Test1 944",
        "Satellite Number": 944,
        "Semi-Major Axis(m)": 6980739.136638005,
        "Time(s)": 0
    },
    {
        "Altitude(m)": 612308.6349209555,
        "Argument of Periapsis(deg)": 0.00010418945913296404,
        "Eccentricity": 0.0,
        "Inclination(deg)": 60.0,
        "Latitude(deg)": -27.62300363536456,
        "Longitude(deg)": 92.50172573623429,
        "Mean Anomaly(deg)": -32.10719385453816,
        "RAAN(deg)": 209.99957995086027,
        "Satellite Name": "Test1 944",
        "Satellite Number": 944,
        "Semi-Major Axis(m)": 6980739.136638005,
        "Time(s)": 10
    }
]